GPS BIIF-11             
1 41019U 15062A   26086.51063787 -.00000070  00000+0  00000+0 0  9994
2 41019  56.9083  33.9579 0111316 231.5995 127.3861  2.00566923 76195
ELEKTRO-L 2             
1 41105U 15074A   26088.18367372 -.00000131  00000+0  00000+0 0  9993
2 41105   6.4940  71.4927 0002847 246.0030 280.7222  1.00271812 37704
GSAT0209 (GALILEO 12)   
1 41174U 15079A   26087.09015773  .00000041  00000+0  00000+0 0  9997
2 41174  55.7756 103.4845 0005363 324.7749  35.2418  1.70474268 63395
GSAT0208 (GALILEO 11)   
1 41175U 15079B   26087.31039940  .00000042  00000+0  00000+0 0  9996
2 41175  55.7736 103.4753 0004862 326.1206  33.9010  1.70474153 63812
GPS BIIF-12             
1 41328U 16007A   26087.59419842  .00000043  00000+0  00000+0 0  9992
2 41328  55.4724  92.6531 0095885 246.6020 112.4215  2.00555500 74221
GSAT0211 (GALILEO 14)   
1 41549U 16030A   26086.84781407 -.00000015  00000+0  00000+0 0  9999
2 41549  55.1222 223.9297 0003027  18.1834 341.7749  1.70473902 61288
GSAT0210 (GALILEO 13)   
1 41550U 16030B   26086.51850330 -.00000012  00000+0  00000+0 0  9994
2 41550  55.1217 223.9368 0001813 210.8159 149.1228  1.70473922 61278
INSAT-3DR               
1 41752U 16054A   26088.12985351 -.00000096  00000+0  00000+0 0  9997
2 41752   0.1124  87.6307 0012698 195.1229  24.5052  1.00271782 35010
GSAT0207 (GALILEO 15)   
1 41859U 16069A   26086.79683287  .00000039  00000+0  00000+0 0  9991
2 41859  55.4460 103.3365 0005689 312.3228  47.6802  1.70474198 58015
GSAT0212 (GALILEO 16)   
1 41860U 16069B   26087.82352524  .00000042  00000+0  00000+0 0  9999
2 41860  55.4444 103.3032 0004278 336.2015  23.8319  1.70474393 58287
GSAT0213 (GALILEO 17)   
1 41861U 16069C   26085.84459114  .00000036  00000+0  00000+0 0  9996
2 41861  55.4449 103.3658 0005734 297.2228  62.7676  1.70474648 58110
GSAT0214 (GALILEO 18)   
1 41862U 16069D   26087.16383991  .00000040  00000+0  00000+0 0  9998
2 41862  55.4445 103.3220 0004756 301.5492  58.4564  1.70474482 58267
GOES 16                 
1 41866U 16071A   26088.16573365 -.00000110  00000+0  00000+0 0  9991
2 41866   0.1593  85.4870 0002177 233.9683 182.0751  1.00271594 34301
GSAT-17                 
1 42815U 17040B   26088.13366685 -.00000277  00000+0  00000+0 0  9999
2 42815   0.0522  74.0444 0004474 225.9486  28.1436  1.00270151 31981
GSAT0215 (GALILEO 19)   
1 43055U 17079A   26087.65385104 -.00000023  00000+0  00000+0 0  9990
2 43055  55.1001 223.7205 0000563 287.9107  72.0267  1.70474567 51618
GSAT0216 (GALILEO 20)   
1 43056U 17079B   26087.35847726 -.00000020  00000+0  00000+0 0  9998
2 43056  55.1004 223.7286 0001951 299.6924  60.2331  1.70474678 51625
GSAT0217 (GALILEO 21)   
1 43057U 17079C   26086.99266438 -.00000017  00000+0  00000+0 0  9999
2 43057  55.0995 223.7365 0001844 336.2846  23.6537  1.70474585 51600
